SHIYAN-1 (SY-1)         
1 28220U 04012A   26068.73650539  .00016393  00000+0  54854-3 0  9991
2 28220  97.8764 140.5238 0005873  23.6952 336.4557 15.31043463195862
STARLINK-34266          
1 65093U 25167R   26068.27083789  .00023320  00000+0  79731-3 0  9999
2 65093  53.1616  28.7498 0001431  92.1443 267.9722 15.30187195 33413
